STARLINK-5142           
1 53984U 22125W   24148.04166089  .00001979  00000+0  14231-3 0  9993
2 53984  53.2171 259.6400 0000492  92.5208 267.5840 15.08854559 91155
STARLINK-5147           
1 53985U 22125X   24147.58535385  .00000718  00000+0  63220-4 0  9994
2 53985  53.2157 261.7671 0001192  72.9740 287.1382 15.08841757 91082
STARLINK-5119           
1 53986U 22125Y   24147.66348765  .00000202  00000+0  30793-4 0  9995
2 53986  53.2167 250.8583 0001569 122.4435 237.6709 15.08840098 91164
STARLINK-5112           
1 53987U 22125Z   24147.58167725  .00017701  00000+0  11273-2 0  9994
2 53987  53.2159 261.7415 0001150  99.5476 260.5646 15.08845948 91014
STARLINK-5113           
1 53988U 22125AA  24148.03797841  .00006968  00000+0  45537-3 0  9998
2 53988  53.2153 259.6156 0001177  74.3708 285.7414 15.08848844 91150
STARLINK-5115           
1 53989U 22125AB  24147.63684400  .00000692  00000+0  61543-4 0  9994
2 53989  53.2177 261.3774 0001234  91.3302 268.7832 15.08858331 91029
STARLINK-5075           
1 53990U 22125AC  24148.03150475 -.00012876  00000+0 -79067-3 0  9999
2 53990  53.2173 259.5709 0007331 255.3703 104.6477 15.08886129 91158
STARLINK-5118           
1 53991U 22125AD  24147.69296349  .00013442  00000+0  86080-3 0  9993
2 53991  53.2157 250.9815 0001321  69.4513 290.6620 15.08851452 91168
STARLINK-5108           
1 53992U 22125AE  24148.02687957  .00050142  00000+0  31374-2 0  9994
2 53992  53.2161 259.5435 0007413 259.9900 100.0255 15.08924991 91157
STARLINK-5121           
1 53993U 22125AF  24147.73847141  .00000908  00000+0  75154-4 0  9996
2 53993  53.2169 255.6066 0001524  56.6030 303.5108 15.08834198 91107
STARLINK-5125           
1 53994U 22125AG  24147.55219513 -.00001443  00000+0 -72619-4 0  9993
2 53994  53.2166 261.5606 0001184 100.6559 259.4567 15.08841516 91086
STARLINK-5097           
1 53995U 22125AH  24147.69204377  .00009150  00000+0  59206-3 0  9998
2 53995  53.2161 261.0174 0000947  87.1140 272.9960 15.08848871 91020
STARLINK-5131           
1 53996U 22125AJ  24148.01220156 -.00031239  00000+0 -19570-2 0  9993
2 53996  53.2163 259.4543 0001366 125.9330 234.1789 15.08770001 91154
STARLINK-5130           
1 53997U 22125AK  24147.98003245  .00019025  00000+0  12092-2 0  9996
2 53997  53.2171 249.9872 0001019 100.9550 259.1557 15.08871381 91282
STARLINK-5128           
1 53998U 22125AL  24147.60737887  .00019054  00000+0  12112-2 0  9997
2 53998  53.2169 261.1956 0001161  71.0261 289.0857 15.08864431 91029
STARLINK-5079           
1 53999U 22125AM  24148.01955599 -.00007124  00000+0 -43004-3 0  9998
2 53999  53.2171 259.5116 0001173  91.6823 268.4304 15.08835629 91156
STARLINK-5088           
1 54000U 22125AN  24147.97626609  .00090453  00000+0  55934-2 0  9992
2 54000  53.2163 249.9762 0003165 250.0130 110.0522 15.09071921 91282
STARLINK-5109           
1 54002U 22125AQ  24147.53470482  .00000552  00000+0  52744-4 0  9991
2 54002  53.2168 251.4978 0001262  52.6580 307.4526 15.08835831 91156
STARLINK-5114           
1 54003U 22125AR  24147.61106305 -.00001047  00000+0 -47670-4 0  9995
2 54003  53.2173 261.2160 0001679 140.5149 219.5965 15.08834002 91075
STARLINK-5129           
1 54004U 22125AS  24147.60000462  .00000903  00000+0  74814-4 0  9990
2 54004  53.2168 261.1445 0001321  91.4464 268.6679 15.08847667 91071
STARLINK-5135           
1 54005U 22125AT  24147.60369110  .00005509  00000+0  36383-3 0  9994
2 54005  53.2161 261.1696 0001211  68.8998 291.2123 15.08852607 91022
STARLINK-5096           
1 54006U 22125AU  24147.72143613  .00014821  00000+0  94703-3 0  9993
2 54006  53.2165 260.4921 0001247  67.7945 292.3180 15.08852136 91032
STARLINK-5132           
1 54007U 22125AV  24147.53008296  .00002968  00000+0  20442-3 0  9998
2 54007  53.2163 261.4241 0001390  81.6332 278.4818 15.08852025 91019
STARLINK-5145           
1 54008U 22125AW  24147.52732635  .00004398  00000+0  29426-3 0  9999
2 54008  53.2164 251.4305 0000912  95.7292 264.3804 15.08840111 91158
STARLINK-5099           
1 54009U 22125AX  24147.72512277  .00001034  00000+0  83053-4 0  9991
2 54009  53.2174 260.5088 0001479  95.3836 264.7325 15.08844039 91041
STARLINK-5127           
1 54010U 22125AY  24147.98363104 -.00001765  00000+0 -92844-4 0  9995
2 54010  53.2160 249.3194 0001622 127.1660 232.9480 15.08843020 91273
STARLINK-5124           
1 54011U 22125AZ  24147.97266232  .00003756  00000+0  25386-3 0  9995
2 54011  53.2165 249.9437 0000890 109.3988 250.7101 15.08851471 91262
STARLINK-5126           
1 54012U 22125BA  24147.54943281  .00003511  00000+0  23859-3 0  9997
2 54012  53.2163 251.5683 0001257  95.0014 265.1121 15.08837943 91206
STARLINK-5098           
1 54013U 22125BB  24148.02047747  .00004995  00000+0  33161-3 0  9998
2 54013  53.2152 249.5345 0000958  51.1886 308.9192 15.08850539 91271
STARLINK-5055           
1 54015U 22125BD  24147.55312255  .00000204  00000+0  30902-4 0  9996
2 54015  53.2174 251.5877 0001089  89.7938 270.3179 15.08844919 91206
STARLINK-5195           
1 54051U 22136A   24148.10699397  .00002364  00000+0  16656-3 0  9993
2 54051  53.2181  29.4378 0001373  95.5911 264.5237 15.08841055 88950
STARLINK-5189           
1 54052U 22136B   24147.92662498  .00002683  00000+0  18656-3 0  9991
2 54052  53.2175 349.8137 0001277  99.7956 260.3181 15.08844898 89506
STARLINK-5176           
1 54053U 22136C   24148.10331132  .00003580  00000+0  24287-3 0  9995
2 54053  53.2171  29.4128 0001410 103.8814 256.2335 15.08848313 88952
STARLINK-5163           
1 54054U 22136D   24147.96346632  .00004230  00000+0  28370-3 0  9990
2 54054  53.2176  29.9596 0001215  84.9521 275.1610 15.08842591 88452
STARLINK-5158           
1 54055U 22136E   24147.96714895  .00001462  00000+0  10995-3 0  9999
2 54055  53.2189  29.9837 0001158  87.0564 273.0561 15.08836446 88456
STARLINK-5226           
1 54056U 22136F   24148.04435763  .00008656  00000+0  56109-3 0  9993
2 54056  53.2171  29.0564 0001217  96.1376 263.9755 15.08851016 88952
STARLINK-5167           
1 54058U 22136H   24148.08488365  .00003161  00000+0  21660-3 0  9995
2 54058  53.2186  29.2977 0001129  87.5930 272.5191 15.08840594 88951
STARLINK-5173           
1 54059U 22136J   24148.08857352  .00003795  00000+0  25638-3 0  9994
2 54059  53.2173  29.3218 0001196  75.9749 284.1376 15.08841329 88951
STARLINK-5169           
1 54060U 22136K   24147.98088043  .00002290  00000+0  16188-3 0  9996
2 54060  53.2183 359.4122 0001197  78.6362 281.4764 15.08846097 89361
STARLINK-5209           
1 54061U 22136L   24146.85340171 -.00005702  00000+0 -34051-3 0  9997
2 54061  53.2145 359.4221 0001193  79.3366 280.7760 15.08834881 88789
STARLINK-5170           
1 54062U 22136M   24148.08120101  .00002295  00000+0  16226-3 0  9990
2 54062  53.2189  29.2745 0001463 105.8393 254.2761 15.08839631 88950
STARLINK-5225           
1 54063U 22136N   24147.94503983  .00001783  00000+0  13009-3 0  9995
2 54063  53.2190  29.8445 0001359 108.2223 251.8917 15.08837816 88936
STARLINK-5172           
1 54064U 22136P   24147.82961186  .00003132  00000+0  21479-3 0  9996
2 54064  53.2168 345.6184 0001021  69.8960 290.2142 15.08840260 89066
STARLINK-5187           
1 54065U 22136Q   24148.07014952  .00002934  00000+0  20234-3 0  9992
2 54065  53.2179  29.2055 0001200  88.2441 271.8688 15.08844775 88951
STARLINK-5151           
1 54066U 22136R   24147.94135558  .00002565  00000+0  17920-3 0  9992
2 54066  53.2175  29.8215 0000943  87.3102 272.7998 15.08837774 88459
STARLINK-5174           
1 54067U 22136S   24147.93030058  .00001965  00000+0  14151-3 0  9997
2 54067  53.2172  29.7542 0001439 105.6777 254.4374 15.08844717 88452
STARLINK-5222           
1 54068U 22136T   24147.93397732  .00000826  00000+0  69967-4 0  9994
2 54068  53.2178  29.7753 0001234  98.1274 261.9859 15.08851947 88931
STARLINK-5223           
1 54069U 22136U   24148.25001157  .01314671  00000+0  65832-1 0  9995
2 54069  53.2159  28.1665 0001384  95.6950 281.7856 15.14079557 88983
STARLINK-5181           
1 54070U 22136V   24148.05541111  .00002641  00000+0  18395-3 0  9998
2 54070  53.2190  29.1185 0001271  88.6816 271.4322 15.08841246 88952
STARLINK-5168           
1 54071U 22136W   24147.91667824 -.00072574  00000+0 -43812-2 0  9998
2 54071  53.2162  29.8772 0001218  89.9361 165.1214 15.10516270  5857
STARLINK-5144           
1 54072U 22136X   24148.05908552  .00003222  00000+0  22037-3 0  9990
2 54072  53.2183  29.1433 0000968  73.8128 286.2970 15.08853630 88959
STARLINK-5146           
1 54073U 22136Y   24147.98412077  .00000943  00000+0  77310-4 0  9996
2 54073  53.2180  24.4028 0001058 101.9932 258.1179 15.08836074 89012
STARLINK-5192           
1 54074U 22136Z   24147.91556549  .00001534  00000+0  11445-3 0  9996
2 54074  53.2182  29.6663 0001302 101.0286 259.0853 15.08842762 88459
STARLINK-5212           
1 54075U 22136AA  24147.64922404  .00000402  00000+0  43342-4 0  9999
2 54075  53.2184  25.8571 0001100  98.5569 261.5548 15.08841718 88480
STARLINK-5201           
1 54076U 22136AB  24148.05226722  .00001536  00000+0  11943-3 0  9996
2 54076  53.2185  29.1017 0001602 132.7208 227.3918 15.07218142 88953
STARLINK-5171           
1 54077U 22136AC  24147.91741868 -.00005063  00000+0 -30022-3 0  9994
2 54077  53.2192   9.7278 0002056 125.0016 235.1169 15.08839867 88736
STARLINK-5138           
1 54078U 22136AD  24147.94320030  .00003453  00000+0  23494-3 0  9996
2 54078  53.2175   9.8831 0001251  55.6042 304.5069 15.08841939 88730
STARLINK-5175           
1 54079U 22136AE  24148.03798938  .00003078  00000+0  21135-3 0  9997
2 54079  53.2177  19.7221 0001232  98.6150 261.4982 15.08850290 89086
STARLINK-5160           
1 54080U 22136AF  24147.89952961  .00014975  00000+0  95660-3 0  9992
2 54080  53.2164  25.2886 0001131 100.2584 259.8536 15.08853159 88994
